{"type":"FeatureCollection", "features": [
{"type":"Feature","geometry":{"type":"Polygon","coordinates":[[[3.49,48.85],[3.38,48.87],[3.2,49.01],[3.17,49.1],[3.08,49.11],[2.87,49.07],[2.81,49.1],[2.7,49.06],[2.63,49.11],[2.53,49.1],[2.44,49.15],[2.16,49.17],[2.09,49.21],[1.88,49.16],[1.76,49.17],[1.7,49.23],[1.62,49.08],[1.48,49.05],[1.5,48.94],[1.59,48.84],[1.58,48.7],[1.73,48.57],[1.78,48.56],[1.8,48.47],[1.98,48.4],[1.98,48.29],[2.16,48.3],[2.21,48.34],[2.42,48.3],[2.52,48.23],[2.51,48.16],[2.71,48.12],[2.94,48.16],[3.03,48.25],[3.05,48.36],[3.35,48.37],[3.41,48.39],[3.39,48.48],[3.52,48.63],[3.46,48.65],[3.43,48.81],[3.49,48.85]]]},"properties":{"nom":"Île-de-France","code":"11"}},
{"type":"Feature","geometry":{"type":"Polygon","coordinates":[[[4.23,49.96],[4.25,49.86],[4.21,49.81],[4.23,49.73],[4.07,49.64],[4.04,49.51],[4.04,49.36],[3.92,49.41],[3.82,49.36],[3.65,49.32],[3.7,49.15],[3.62,49.15],[3.59,49.04],[3.62,48.97],[3.52,48.91],[3.49,48.85],[3.43,48.81],[3.46,48.65],[3.52,48.63],[3.39,48.48],[3.41,48.39],[3.55,48.33],[3.67,48.14],[3.75,48.17],[3.9,47.93],[4.12,47.93],[4.17,47.96],[4.27,47.92],[4.31,47.96],[4.45,47.96],[4.58,48.03],[4.7,48.02],[4.91,47.92],[4.99,47.82],[4.97,47.74],[5.08,47.66],[5.19,47.65],[5.26,47.58],[5.37,47.6],[5.43,47.67],[5.57,47.7],[5.66,47.68],[5.69,47.82],[5.8,47.86],[5.88,47.93],[5.79,47.95],[5.78,48.03],[5.66,48.13],[5.73,48.19],[5.52,48.34],[5.42,48.33],[5.43,48.43],[5.31,48.52],[5.27,48.51],[5,48.62],[5.01,48.74],[4.89,48.8],[4.92,48.9],[5.04,48.97],[5,49.11],[4.94,49.18],[4.97,49.25],[5.05,49.27],[5.09,49.37],[5.08,49.47],[5.12,49.59],[5.26,49.54],[5.39,49.62],[5.3,49.63],[5.27,49.7],[5.17,49.69],[5.1,49.76],[4.99,49.8],[4.86,49.79],[4.89,49.91],[4.82,49.99],[4.83,50.16],[4.71,50.1],[4.69,50],[4.44,49.94],[4.31,49.97],[4.23,49.96]]]},"properties":{"nom":"Champagne-Ardenne","code":"21"}},
{"type":"Feature","geometry":{"type":"Polygon","coordinates":[[[3.49,48.85],[3.52,48.91],[3.62,48.97],[3.59,49.04],[3.62,49.15],[3.7,49.15],[3.65,49.32],[3.82,49.36],[3.92,49.41],[4.04,49.36],[4.04,49.51],[4.07,49.64],[4.23,49.73],[4.21,49.81],[4.25,49.86],[4.23,49.96],[4.15,49.98],[4.08,49.97],[3.99,50.04],[3.89,50.01],[3.84,50.05],[3.71,50.07],[3.61,50.03],[3.49,50.02],[3.37,50.04],[3.17,50.01],[3.01,50.06],[2.88,50.03],[2.78,50.11],[2.59,50.11],[2.47,50.14],[2.45,50.23],[2.36,50.21],[2.14,50.21],[1.8,50.36],[1.66,50.33],[1.63,50.36],[1.55,50.36],[1.51,50.2],[1.45,50.11],[1.38,50.07],[1.71,49.89],[1.75,49.76],[1.7,49.64],[1.71,49.58],[1.79,49.51],[1.72,49.4],[1.77,49.29],[1.7,49.23],[1.76,49.17],[1.88,49.16],[2.09,49.21],[2.16,49.17],[2.44,49.15],[2.53,49.1],[2.63,49.11],[2.7,49.06],[2.81,49.1],[2.87,49.07],[3.08,49.11],[3.17,49.1],[3.2,49.01],[3.38,48.87],[3.49,48.85]]]},"properties":{"nom":"Picardie","code":"22"}},
{"type":"Feature","geometry":{"type":"Polygon","coordinates":[[[0.81,48.67],[0.88,48.72],[1.04,48.73],[1.16,48.77],[1.33,48.76],[1.36,48.83],[1.47,48.88],[1.5,48.94],[1.48,49.05],[1.62,49.08],[1.7,49.23],[1.77,49.29],[1.72,49.4],[1.79,49.51],[1.71,49.58],[1.7,49.64],[1.75,49.76],[1.71,49.89],[1.38,50.07],[1.12,49.94],[0.96,49.92],[0.76,49.87],[0.61,49.86],[0.35,49.75],[0.16,49.69],[0.07,49.52],[0.11,49.47],[0.3,49.43],[0.3,49.31],[0.36,49.3],[0.39,49.21],[0.44,48.88],[0.6,48.89],[0.63,48.83],[0.73,48.79],[0.81,48.67]]]},"properties":{"nom":"Haute-Normandie","code":"23"}},
{"type":"Feature","geometry":{"type":"Polygon","coordinates":[[[2.28,46.42],[2.36,46.52],[2.54,46.52],[2.61,46.55],[2.62,46.69],[2.77,46.72],[2.94,46.8],[3.03,46.79],[3.07,46.85],[3.08,46.96],[3.02,47.06],[3.02,47.16],[2.98,47.26],[2.87,47.33],[2.93,47.44],[2.89,47.51],[2.95,47.56],[2.92,47.68],[2.86,47.75],[3.03,47.8],[3.01,47.9],[3.13,47.97],[3.12,48.03],[3.05,48.07],[3.02,48.14],[2.94,48.16],[2.71,48.12],[2.51,48.16],[2.52,48.23],[2.42,48.3],[2.21,48.34],[2.16,48.3],[1.98,48.29],[1.98,48.4],[1.8,48.47],[1.78,48.56],[1.73,48.57],[1.58,48.7],[1.59,48.84],[1.5,48.94],[1.47,48.88],[1.36,48.83],[1.33,48.76],[1.16,48.77],[1.04,48.73],[0.88,48.72],[0.81,48.67],[0.87,48.57],[0.97,48.52],[0.95,48.4],[0.79,48.34],[0.76,48.3],[0.8,48.19],[0.86,48.17],[0.84,48.07],[0.85,47.94],[0.76,47.9],[0.76,47.83],[0.52,47.66],[0.32,47.6],[0.23,47.61],[0.15,47.36],[0.08,47.29],[0.05,47.16],[0.08,47.13],[0.26,47.07],[0.36,46.95],[0.44,46.94],[0.57,46.98],[0.7,46.97],[0.7,46.9],[0.8,46.85],[0.84,46.76],[0.9,46.74],[0.94,46.58],[1.09,46.54],[1.14,46.5],[1.18,46.38],[1.36,46.4],[1.41,46.35],[1.53,46.43],[1.63,46.39],[1.68,46.42],[1.98,46.44],[2.09,46.41],[2.28,46.42]]]},"properties":{"nom":"Centre-Val de Loire","code":"24"}},
{"type":"Feature","geometry":{"type":"Polygon","coordinates":[[[-1.07,48.51],[-0.97,48.49],[-0.85,48.5],[-0.81,48.45],[-0.65,48.44],[-0.51,48.51],[-0.35,48.48],[-0.18,48.54],[-0.14,48.45],[-0.05,48.45],[0.04,48.38],[0.26,48.48],[0.38,48.43],[0.38,48.33],[0.49,48.31],[0.54,48.25],[0.68,48.25],[0.75,48.18],[0.8,48.19],[0.76,48.3],[0.79,48.34],[0.95,48.4],[0.97,48.52],[0.87,48.57],[0.81,48.67],[0.73,48.79],[0.63,48.83],[0.6,48.89],[0.44,48.88],[0.39,49.21],[0.36,49.3],[0.3,49.31],[0.3,49.43],[0.14,49.41],[-0.01,49.32],[-0.14,49.29],[-0.29,49.29],[-0.43,49.34],[-0.79,49.35],[-0.96,49.4],[-1.17,49.41],[-1.31,49.55],[-1.23,49.61],[-1.27,49.68],[-1.39,49.71],[-1.55,49.65],[-1.83,49.69],[-1.84,49.57],[-1.89,49.54],[-1.77,49.38],[-1.6,49.19],[-1.61,49.07],[-1.56,49.04],[-1.56,48.91],[-1.59,48.84],[-1.57,48.74],[-1.44,48.66],[-1.45,48.62],[-1.57,48.63],[-1.49,48.49],[-1.37,48.46],[-1.25,48.54],[-1.07,48.51]]]},"properties":{"nom":"Basse-Normandie","code":"25"}},
{"type":"Feature","geometry":{"type":"Polygon","coordinates":[[[3.03,46.79],[3.2,46.68],[3.43,46.71],[3.45,46.65],[3.62,46.74],[3.72,46.63],[3.74,46.54],[3.84,46.53],[4,46.46],[3.99,46.32],[3.9,46.28],[3.89,46.21],[4.03,46.17],[4.24,46.19],[4.28,46.16],[4.37,46.19],[4.41,46.3],[4.5,46.27],[4.61,46.27],[4.69,46.3],[4.78,46.18],[4.89,46.45],[4.98,46.52],[5.05,46.49],[5.17,46.52],[5.22,46.47],[5.31,46.45],[5.38,46.46],[5.36,46.58],[5.4,46.68],[5.4,46.87],[5.26,46.93],[5.28,47.05],[5.4,47.09],[5.51,47.28],[5.49,47.37],[5.43,47.39],[5.44,47.49],[5.5,47.55],[5.48,47.61],[5.37,47.6],[5.26,47.58],[5.19,47.65],[5.08,47.66],[4.97,47.74],[4.99,47.82],[4.91,47.92],[4.7,48.02],[4.58,48.03],[4.45,47.96],[4.31,47.96],[4.27,47.92],[4.17,47.96],[4.12,47.93],[3.9,47.93],[3.75,48.17],[3.67,48.14],[3.55,48.33],[3.41,48.39],[3.35,48.37],[3.05,48.36],[3.03,48.25],[2.94,48.16],[3.02,48.14],[3.05,48.07],[3.12,48.03],[3.13,47.97],[3.01,47.9],[3.03,47.8],[2.86,47.75],[2.92,47.68],[2.95,47.56],[2.89,47.51],[2.93,47.44],[2.87,47.33],[2.98,47.26],[3.02,47.16],[3.02,47.06],[3.08,46.96],[3.07,46.85],[3.03,46.79]]]},"properties":{"nom":"Bourgogne","code":"26"}},
{"type":"Feature","geometry":{"type":"Polygon","coordinates":[[[1.63,50.36],[1.66,50.33],[1.8,50.36],[2.14,50.21],[2.36,50.21],[2.45,50.23],[2.47,50.14],[2.59,50.11],[2.78,50.11],[2.88,50.03],[3.01,50.06],[3.17,50.01],[3.37,50.04],[3.49,50.02],[3.61,50.03],[3.71,50.07],[3.84,50.05],[3.89,50.01],[3.99,50.04],[4.08,49.97],[4.15,49.98],[4.15,50.21],[4.22,50.25],[4.03,50.36],[3.92,50.33],[3.86,50.35],[3.66,50.35],[3.67,50.44],[3.61,50.5],[3.45,50.51],[3.37,50.49],[3.28,50.54],[3.28,50.59],[3.15,50.79],[2.94,50.75],[2.9,50.7],[2.81,50.72],[2.72,50.81],[2.63,50.81],[2.55,51.09],[2.37,51.05],[2.06,51.01],[1.74,50.94],[1.58,50.87],[1.61,50.77],[1.56,50.69],[1.59,50.54],[1.56,50.4],[1.63,50.36]]]},"properties":{"nom":"Nord-Pas-de-Calais","code":"31"}},
{"type":"Feature","geometry":{"type":"Polygon","coordinates":[[[5.39,49.62],[5.26,49.54],[5.12,49.59],[5.08,49.47],[5.09,49.37],[5.05,49.27],[4.97,49.25],[4.94,49.18],[5,49.11],[5.04,48.97],[4.92,48.9],[4.89,48.8],[5.01,48.74],[5,48.62],[5.27,48.51],[5.31,48.52],[5.43,48.43],[5.42,48.33],[5.52,48.34],[5.73,48.19],[5.66,48.13],[5.78,48.03],[5.79,47.95],[5.88,47.93],[5.94,47.98],[6.13,48.02],[6.16,47.96],[6.25,47.94],[6.39,47.96],[6.48,47.89],[6.6,47.94],[6.79,47.83],[6.85,47.82],[6.9,47.83],[6.94,48],[7,48.02],[7.08,48.11],[7.17,48.3],[7.09,48.4],[7.1,48.52],[7.22,48.55],[7.28,48.62],[7.25,48.69],[7.31,48.77],[7.18,48.85],[7.08,48.79],[6.99,48.96],[7.1,49.06],[7.13,49.01],[7.33,48.95],[7.45,48.97],[7.54,48.93],[7.64,49.05],[7.5,49.12],[7.48,49.17],[7.38,49.18],[7.3,49.12],[7.1,49.14],[6.94,49.22],[6.84,49.21],[6.83,49.15],[6.74,49.16],[6.69,49.25],[6.59,49.32],[6.53,49.44],[6.42,49.48],[6.37,49.46],[6.18,49.51],[6.03,49.45],[5.95,49.5],[5.82,49.54],[5.65,49.55],[5.61,49.51],[5.45,49.52],[5.39,49.62]]]},"properties":{"nom":"Lorraine","code":"41"}},
{"type":"Feature","geometry":{"type":"Polygon","coordinates":[[[7.64,49.05],[7.54,48.93],[7.45,48.97],[7.33,48.95],[7.13,49.01],[7.1,49.06],[6.99,48.96],[7.08,48.79],[7.18,48.85],[7.31,48.77],[7.25,48.69],[7.28,48.62],[7.22,48.55],[7.1,48.52],[7.09,48.4],[7.17,48.3],[7.08,48.11],[7,48.02],[6.94,48],[6.9,47.83],[6.85,47.82],[6.86,47.78],[7,47.75],[7.13,47.5],[7.17,47.45],[7.39,47.43],[7.49,47.48],[7.5,47.53],[7.59,47.6],[7.52,47.66],[7.53,47.77],[7.58,47.93],[7.57,48.04],[7.6,48.16],[7.67,48.22],[7.73,48.4],[7.81,48.51],[7.8,48.58],[8.03,48.79],[8.09,48.8],[8.2,48.96],[7.94,49.06],[7.85,49.04],[7.64,49.05]]]},"properties":{"nom":"Alsace","code":"42"}},
{"type":"Feature","geometry":{"type":"Polygon","coordinates":[[[6.06,46.42],[6.12,46.52],[6.11,46.58],[6.3,46.7],[6.43,46.76],[6.47,46.96],[6.62,46.99],[6.74,47.11],[6.83,47.14],[7.01,47.3],[6.94,47.43],[7.02,47.5],[7.13,47.5],[7,47.75],[6.86,47.78],[6.85,47.82],[6.79,47.83],[6.6,47.94],[6.48,47.89],[6.39,47.96],[6.25,47.94],[6.16,47.96],[6.13,48.02],[5.94,47.98],[5.88,47.93],[5.8,47.86],[5.69,47.82],[5.66,47.68],[5.57,47.7],[5.43,47.67],[5.37,47.6],[5.48,47.61],[5.5,47.55],[5.44,47.49],[5.43,47.39],[5.49,47.37],[5.51,47.28],[5.4,47.09],[5.28,47.05],[5.26,46.93],[5.4,46.87],[5.4,46.68],[5.36,46.58],[5.38,46.46],[5.31,46.45],[5.47,46.32],[5.51,46.26],[5.61,46.33],[5.71,46.31],[5.72,46.26],[5.85,46.26],[6.06,46.42]]]},"properties":{"nom":"Franche-Comté","code":"43"}},
{"type":"Feature","geometry":{"type":"Polygon","coordinates":[[[-2.46,47.45],[-2.53,47.38],[-2.51,47.3],[-2.4,47.28],[-2.29,47.23],[-2.17,47.27],[-2.17,47.16],[-2,47.06],[-2.07,46.94],[-2.15,46.89],[-2.14,46.82],[-1.98,46.72],[-1.86,46.61],[-1.81,46.49],[-1.62,46.41],[-1.51,46.4],[-1.47,46.34],[-1.36,46.35],[-1.22,46.27],[-1.13,46.31],[-0.93,46.36],[-0.73,46.3],[-0.64,46.32],[-0.54,46.39],[-0.61,46.45],[-0.6,46.53],[-0.67,46.72],[-0.82,46.88],[-0.85,46.99],[-0.6,47],[-0.52,47.08],[-0.4,47.07],[-0.24,47.11],[-0.04,47.09],[0.05,47.16],[0.08,47.29],[0.15,47.36],[0.23,47.61],[0.32,47.6],[0.52,47.66],[0.76,47.83],[0.76,47.9],[0.85,47.94],[0.84,48.07],[0.86,48.17],[0.8,48.19],[0.75,48.18],[0.68,48.25],[0.54,48.25],[0.49,48.31],[0.38,48.33],[0.38,48.43],[0.26,48.48],[0.04,48.38],[-0.05,48.45],[-0.14,48.45],[-0.18,48.54],[-0.35,48.48],[-0.51,48.51],[-0.65,48.44],[-0.81,48.45],[-0.85,48.5],[-0.97,48.49],[-1.07,48.51],[-1.06,48.31],[-1.1,48.27],[-1.02,48],[-1.12,47.99],[-1.22,47.86],[-1.25,47.78],[-1.39,47.83],[-1.48,47.83],[-1.64,47.72],[-1.97,47.69],[-2.1,47.63],[-2.1,47.53],[-2.3,47.5],[-2.32,47.46],[-2.46,47.45]]]},"properties":{"nom":"Pays de la Loire","code":"52"}},
{"type":"Feature","geometry":{"type":"Polygon","coordinates":[[[-3.58,48.79],[-3.57,48.67],[-3.72,48.71],[-3.84,48.71],[-3.85,48.63],[-3.97,48.68],[-4.13,48.7],[-4.27,48.65],[-4.35,48.67],[-4.5,48.62],[-4.5,48.59],[-4.73,48.56],[-4.79,48.42],[-4.71,48.33],[-4.37,48.4],[-4.31,48.34],[-4.37,48.28],[-4.27,48.15],[-4.3,48.09],[-4.42,48.11],[-4.62,48.07],[-4.54,48.01],[-4.53,48.03],[-4.54,48.01],[-4.47,47.99],[-4.37,47.91],[-4.37,47.8],[-4.18,47.8],[-4.12,47.86],[-4.14,47.92],[-4.09,47.86],[-3.98,47.86],[-3.95,47.9],[-3.85,47.79],[-3.53,47.76],[-3.46,47.7],[-3.35,47.75],[-3.35,47.71],[-3.1,47.57],[-2.96,47.58],[-2.86,47.62],[-2.72,47.6],[-2.73,47.54],[-2.56,47.51],[-2.46,47.45],[-2.32,47.46],[-2.3,47.5],[-2.1,47.53],[-2.1,47.63],[-1.97,47.69],[-1.64,47.72],[-1.48,47.83],[-1.39,47.83],[-1.25,47.78],[-1.22,47.86],[-1.12,47.99],[-1.02,48],[-1.1,48.27],[-1.06,48.31],[-1.07,48.51],[-1.25,48.54],[-1.37,48.46],[-1.49,48.49],[-1.57,48.63],[-1.77,48.6],[-1.86,48.62],[-1.85,48.71],[-1.98,48.68],[-2,48.59],[-1.97,48.54],[-2,48.59],[-2.05,48.64],[-2.13,48.64],[-2.21,48.59],[-2.32,48.68],[-2.58,48.58],[-2.63,48.52],[-2.82,48.59],[-2.86,48.68],[-3.02,48.78],[-3.1,48.87],[-3.2,48.83],[-3.32,48.84],[-3.39,48.8],[-3.49,48.83],[-3.57,48.8],[-3.58,48.79]]]},"properties":{"nom":"Bretagne","code":"53"}},
{"type":"Feature","geometry":{"type":"MultiPolygon","coordinates":[[[[0.63,45.71],[0.77,45.79],[0.83,45.88],[0.94,45.96],[0.91,46.02],[0.82,46.05],[0.85,46.14],[0.8,46.21],[0.9,46.29],[1,46.28],[1.05,46.36],[1.18,46.38],[1.14,46.5],[1.09,46.54],[0.94,46.58],[0.9,46.74],[0.84,46.76],[0.8,46.85],[0.7,46.9],[0.7,46.97],[0.57,46.98],[0.44,46.94],[0.36,46.95],[0.26,47.07],[0.08,47.13],[0.05,47.16],[-0.04,47.09],[-0.24,47.11],[-0.4,47.07],[-0.52,47.08],[-0.6,47],[-0.85,46.99],[-0.82,46.88],[-0.67,46.72],[-0.6,46.53],[-0.61,46.45],[-0.54,46.39],[-0.64,46.32],[-0.73,46.3],[-0.93,46.36],[-1.13,46.31],[-1.16,46.15],[-1.1,46.09],[-1.07,45.93],[-1.14,45.82],[-1.24,45.79],[-1.21,45.7],[-1.02,45.62],[-0.8,45.48],[-0.71,45.33],[-0.46,45.29],[-0.42,45.2],[-0.14,45.09],[-0.04,45.1],[0.01,45.2],[0.15,45.21],[0.22,45.29],[0.25,45.38],[0.33,45.46],[0.43,45.49],[0.63,45.71]]],[[[-1.3,45.9],[-1.2,45.83],[-1.25,45.99],[-1.3,45.9]]]]},"properties":{"nom":"Poitou-Charentes","code":"54"}},
{"type":"Feature","geometry":{"type":"Polygon","coordinates":[[[1.45,45.02],[1.38,45.14],[1.29,45.14],[1.28,45.24],[1.23,45.27],[1.32,45.38],[1.27,45.44],[1.18,45.46],[1.13,45.54],[1.08,45.53],[1.02,45.61],[0.9,45.61],[0.84,45.58],[0.75,45.62],[0.74,45.69],[0.63,45.71],[0.43,45.49],[0.33,45.46],[0.25,45.38],[0.22,45.29],[0.15,45.21],[0.01,45.2],[-0.04,45.1],[-0.14,45.09],[-0.42,45.2],[-0.46,45.29],[-0.71,45.33],[-0.76,45.28],[-0.84,45.38],[-1.05,45.5],[-1.14,45.51],[-1.16,45.28],[-1.19,45.13],[-1.23,44.7],[-1.16,44.77],[-1.04,44.7],[-1.12,44.64],[-1.19,44.66],[-1.26,44.54],[-1.27,44.34],[-1.38,43.88],[-1.48,43.59],[-1.6,43.43],[-1.76,43.38],[-1.73,43.3],[-1.63,43.31],[-1.41,43.27],[-1.38,43.19],[-1.46,43.06],[-1.35,43.03],[-1.31,43.07],[-1.01,42.99],[-0.97,42.96],[-0.81,42.95],[-0.6,42.83],[-0.39,42.8],[-0.31,42.85],[-0.29,43.01],[-0.04,43.23],[0,43.43],[-0.04,43.52],[-0.12,43.59],[-0.25,43.6],[-0.25,43.71],[-0.19,43.74],[-0.2,43.91],[-0.1,43.93],[-0.04,43.98],[0.06,43.96],[0.19,44.02],[0.31,43.99],[0.57,44.06],[0.68,44.03],[0.8,44.13],[0.89,44.14],[0.95,44.28],[0.95,44.36],[1.06,44.37],[1.01,44.54],[1.3,44.74],[1.3,44.79],[1.43,44.87],[1.41,44.97],[1.45,45.02]]]},"properties":{"nom":"Aquitaine","code":"72"}},
{"type":"Feature","geometry":{"type":"Polygon","coordinates":[[[1.79,42.57],[1.87,42.58],[2.16,42.7],[2.06,42.76],[1.95,42.74],[1.88,42.85],[1.96,42.86],[1.99,43.02],[1.95,43.12],[1.71,43.19],[1.71,43.31],[1.8,43.36],[1.86,43.44],[2.07,43.4],[2.16,43.41],[2.26,43.46],[2.37,43.42],[2.49,43.44],[2.57,43.42],[2.66,43.48],[2.62,43.57],[2.65,43.65],[2.76,43.61],[2.91,43.65],[3.15,43.81],[3.25,43.84],[3.27,43.9],[3.45,44.02],[3.34,44.05],[3.32,44.14],[3.22,44.2],[3.12,44.39],[3.14,44.45],[3.07,44.5],[3.08,44.57],[2.98,44.64],[2.94,44.68],[2.92,44.79],[2.86,44.87],[2.77,44.86],[2.74,44.94],[2.6,44.84],[2.56,44.72],[2.44,44.64],[2.29,44.67],[2.21,44.64],[2.15,44.72],[2.17,44.81],[2.08,44.89],[2.06,44.98],[1.91,44.98],[1.8,44.92],[1.65,45.03],[1.51,45.04],[1.45,45.02],[1.41,44.97],[1.43,44.87],[1.3,44.79],[1.3,44.74],[1.01,44.54],[1.06,44.37],[0.95,44.36],[0.95,44.28],[0.89,44.14],[0.8,44.13],[0.68,44.03],[0.57,44.06],[0.31,43.99],[0.19,44.02],[0.06,43.96],[-0.04,43.98],[-0.1,43.93],[-0.2,43.91],[-0.19,43.74],[-0.25,43.71],[-0.25,43.6],[-0.12,43.59],[-0.04,43.52],[0,43.43],[-0.04,43.23],[-0.29,43.01],[-0.31,42.85],[-0.15,42.78],[-0.06,42.69],[0.12,42.71],[0.18,42.74],[0.3,42.68],[0.36,42.72],[0.43,42.69],[0.68,42.71],[0.64,42.78],[0.68,42.86],[0.86,42.83],[0.93,42.79],[1.08,42.79],[1.14,42.73],[1.36,42.72],[1.44,42.6],[1.48,42.65],[1.74,42.62],[1.79,42.57]]]},"properties":{"nom":"Midi-Pyrénées","code":"73"}},
{"type":"Feature","geometry":{"type":"Polygon","coordinates":[[[2.06,44.98],[2.14,45],[2.24,45.27],[2.49,45.42],[2.52,45.55],[2.46,45.59],[2.53,45.69],[2.39,45.82],[2.49,45.86],[2.57,45.96],[2.6,46.04],[2.55,46.08],[2.56,46.17],[2.47,46.29],[2.31,46.35],[2.28,46.42],[2.09,46.41],[1.98,46.44],[1.68,46.42],[1.63,46.39],[1.53,46.43],[1.41,46.35],[1.36,46.4],[1.18,46.38],[1.05,46.36],[1,46.28],[0.9,46.29],[0.8,46.21],[0.85,46.14],[0.82,46.05],[0.91,46.02],[0.94,45.96],[0.83,45.88],[0.77,45.79],[0.63,45.71],[0.74,45.69],[0.75,45.62],[0.84,45.58],[0.9,45.61],[1.02,45.61],[1.08,45.53],[1.13,45.54],[1.18,45.46],[1.27,45.44],[1.32,45.38],[1.23,45.27],[1.28,45.24],[1.29,45.14],[1.38,45.14],[1.45,45.02],[1.51,45.04],[1.65,45.03],[1.8,44.92],[1.91,44.98],[2.06,44.98]]]},"properties":{"nom":"Limousin","code":"74"}},
{"type":"Feature","geometry":{"type":"Polygon","coordinates":[[[5.64,44.17],[5.69,44.2],[5.61,44.32],[5.49,44.34],[5.46,44.49],[5.6,44.47],[5.64,44.65],[5.79,44.65],[5.85,44.75],[6.13,44.86],[6.25,44.85],[6.36,44.91],[6.32,45],[6.2,45.01],[6.23,45.11],[6.36,45.11],[6.45,45.05],[6.51,45.11],[6.63,45.11],[6.77,45.16],[6.85,45.13],[7,45.22],[7.07,45.21],[7.18,45.4],[7,45.5],[6.98,45.59],[6.81,45.73],[6.8,45.82],[7,45.87],[7.04,45.92],[7.01,46],[6.89,46.11],[6.79,46.15],[6.86,46.29],[6.72,46.41],[6.51,46.4],[6.39,46.34],[6.3,46.37],[6.24,46.3],[6.29,46.22],[6.13,46.14],[5.96,46.14],[5.97,46.21],[6.08,46.25],[6.17,46.37],[6.06,46.42],[5.85,46.26],[5.72,46.26],[5.71,46.31],[5.61,46.33],[5.51,46.26],[5.47,46.32],[5.31,46.45],[5.22,46.47],[5.17,46.52],[5.05,46.49],[4.98,46.52],[4.89,46.45],[4.78,46.18],[4.69,46.3],[4.61,46.27],[4.5,46.27],[4.41,46.3],[4.37,46.19],[4.28,46.16],[4.24,46.19],[4.03,46.17],[3.89,46.21],[3.9,46.28],[3.81,46.26],[3.79,46.11],[3.81,45.98],[3.73,45.92],[3.73,45.83],[3.82,45.64],[3.95,45.56],[3.99,45.49],[3.89,45.39],[4.08,45.36],[4.24,45.39],[4.49,45.22],[4.35,45.08],[4.28,44.97],[4.16,44.87],[4.03,44.87],[3.86,44.74],[3.92,44.57],[4.04,44.45],[4.05,44.32],[4.11,44.33],[4.26,44.26],[4.33,44.34],[4.51,44.34],[4.65,44.27],[4.76,44.33],[4.81,44.23],[4.99,44.29],[5.15,44.3],[5.16,44.23],[5.24,44.23],[5.54,44.13],[5.64,44.17]],[[4.99,44.29],[4.87,44.35],[4.97,44.43],[5.03,44.36],[4.99,44.29]]]},"properties":{"nom":"Rhône-Alpes","code":"82"}},
{"type":"Feature","geometry":{"type":"Polygon","coordinates":[[[2.28,46.42],[2.31,46.35],[2.47,46.29],[2.56,46.17],[2.55,46.08],[2.6,46.04],[2.57,45.96],[2.49,45.86],[2.39,45.82],[2.53,45.69],[2.46,45.59],[2.52,45.55],[2.49,45.42],[2.24,45.27],[2.14,45],[2.06,44.98],[2.08,44.89],[2.17,44.81],[2.15,44.72],[2.21,44.64],[2.29,44.67],[2.44,44.64],[2.56,44.72],[2.6,44.84],[2.74,44.94],[2.77,44.86],[2.86,44.87],[2.92,44.79],[2.94,44.68],[2.98,44.64],[3.06,44.82],[3.13,44.9],[3.19,44.86],[3.36,44.97],[3.42,44.93],[3.49,44.81],[3.74,44.84],[3.86,44.74],[4.03,44.87],[4.16,44.87],[4.28,44.97],[4.35,45.08],[4.49,45.22],[4.24,45.39],[4.08,45.36],[3.89,45.39],[3.99,45.49],[3.95,45.56],[3.82,45.64],[3.73,45.83],[3.73,45.92],[3.81,45.98],[3.79,46.11],[3.81,46.26],[3.9,46.28],[3.99,46.32],[4,46.46],[3.84,46.53],[3.74,46.54],[3.72,46.63],[3.62,46.74],[3.45,46.65],[3.43,46.71],[3.2,46.68],[3.03,46.79],[2.94,46.8],[2.77,46.72],[2.62,46.69],[2.61,46.55],[2.54,46.52],[2.36,46.52],[2.28,46.42]]]},"properties":{"nom":"Auvergne","code":"83"}},
{"type":"Feature","geometry":{"type":"Polygon","coordinates":[[[2.98,44.64],[3.08,44.57],[3.07,44.5],[3.14,44.45],[3.12,44.39],[3.22,44.2],[3.32,44.14],[3.34,44.05],[3.45,44.02],[3.27,43.9],[3.25,43.84],[3.15,43.81],[2.91,43.65],[2.76,43.61],[2.65,43.65],[2.62,43.57],[2.66,43.48],[2.57,43.42],[2.49,43.44],[2.37,43.42],[2.26,43.46],[2.16,43.41],[2.07,43.4],[1.86,43.44],[1.8,43.36],[1.71,43.31],[1.71,43.19],[1.95,43.12],[1.99,43.02],[1.96,42.86],[1.88,42.85],[1.95,42.74],[2.06,42.76],[2.16,42.7],[1.87,42.58],[1.79,42.57],[1.81,42.49],[1.94,42.45],[1.99,42.36],[2.09,42.36],[2.14,42.42],[2.26,42.44],[2.43,42.39],[2.48,42.34],[2.56,42.36],[2.66,42.34],[2.67,42.4],[2.84,42.46],[3.04,42.47],[3.08,42.43],[3.16,42.45],[3.05,42.55],[3.04,42.6],[3.04,42.96],[3.08,43.06],[3.18,43.17],[3.36,43.28],[3.51,43.27],[3.65,43.39],[3.79,43.44],[3.91,43.52],[4.04,43.56],[4.11,43.55],[4.16,43.47],[4.23,43.46],[4.24,43.5],[4.45,43.58],[4.43,43.63],[4.49,43.7],[4.6,43.69],[4.65,43.78],[4.64,43.85],[4.81,43.96],[4.81,44.03],[4.71,44.11],[4.72,44.18],[4.65,44.27],[4.51,44.34],[4.33,44.34],[4.26,44.26],[4.11,44.33],[4.05,44.32],[4.04,44.45],[3.92,44.57],[3.86,44.74],[3.74,44.84],[3.49,44.81],[3.42,44.93],[3.36,44.97],[3.19,44.86],[3.13,44.9],[3.06,44.82],[2.98,44.64]]]},"properties":{"nom":"Languedoc-Roussillon","code":"91"}},
{"type":"Feature","geometry":{"type":"MultiPolygon","coordinates":[[[[5.64,44.17],[5.54,44.13],[5.24,44.23],[5.16,44.23],[5.15,44.3],[4.99,44.29],[4.81,44.23],[4.76,44.33],[4.65,44.27],[4.72,44.18],[4.71,44.11],[4.81,44.03],[4.81,43.96],[4.64,43.85],[4.65,43.78],[4.6,43.69],[4.49,43.7],[4.43,43.63],[4.45,43.58],[4.24,43.5],[4.23,43.46],[4.55,43.45],[4.61,43.35],[4.84,43.33],[4.91,43.43],[4.97,43.42],[5.04,43.33],[5.24,43.33],[5.32,43.36],[5.37,43.3],[5.34,43.21],[5.55,43.21],[5.69,43.18],[5.86,43.05],[5.9,43.08],[5.98,43.11],[6.13,43.07],[6.2,43.12],[6.31,43.11],[6.68,43.2],[6.67,43.33],[6.75,43.42],[6.92,43.45],[6.95,43.54],[7.11,43.57],[7.16,43.66],[7.32,43.69],[7.53,43.78],[7.5,43.87],[7.57,43.95],[7.67,44],[7.72,44.08],[7.62,44.15],[7.41,44.12],[7.29,44.14],[7.16,44.21],[7.01,44.23],[6.9,44.37],[6.88,44.55],[6.93,44.57],[6.96,44.68],[7.03,44.69],[7.02,44.81],[6.94,44.86],[6.86,44.85],[6.75,44.91],[6.74,45.02],[6.67,45.02],[6.63,45.11],[6.51,45.11],[6.45,45.05],[6.36,45.11],[6.23,45.11],[6.2,45.01],[6.32,45],[6.36,44.91],[6.25,44.85],[6.13,44.86],[5.85,44.75],[5.79,44.65],[5.64,44.65],[5.6,44.47],[5.46,44.49],[5.49,44.34],[5.61,44.32],[5.69,44.2],[5.64,44.17]],[[5.01,43.56],[5.11,43.51],[5.14,43.4],[5.06,43.4],[5.01,43.56]]],[[[4.99,44.29],[5.03,44.36],[4.97,44.43],[4.87,44.35],[4.99,44.29]]]]},"properties":{"nom":"Provence-Alpes-Côte d'Azur","code":"93"}},
{"type":"Feature","geometry":{"type":"Polygon","coordinates":[[[9.4,41.86],[9.41,41.94],[9.55,42.1],[9.56,42.28],[9.54,42.33],[9.53,42.57],[9.46,42.64],[9.45,42.71],[9.49,42.8],[9.46,42.99],[9.34,43],[9.33,42.9],[9.35,42.74],[9.29,42.68],[9.16,42.74],[9.02,42.64],[8.92,42.64],[8.73,42.57],[8.68,42.47],[8.56,42.34],[8.66,42.3],[8.57,42.23],[8.62,42.12],[8.71,42.1],[8.64,41.91],[8.8,41.91],[8.77,41.74],[8.89,41.69],[8.79,41.63],[8.81,41.56],[8.92,41.49],[8.99,41.49],[9.18,41.37],[9.29,41.48],[9.28,41.52],[9.39,41.65],[9.4,41.86]]]},"properties":{"nom":"Corse","code":"94"}}
]}